{"type": "FeatureCollection", "features": [ {"type": "Feature", "properties": {"norad_id": 66805, "name": "STARLINK-36049", "group": "last-30-days", "lat": -3.6438913420578247, "lon": 78.55465076477597, "alt_km": 307.21345004116847, "timestamp": "2025-12-12T07:43:19.259417+00:00", "meta": {"OBJECT_NAME": "STARLINK-36049", "OBJECT_ID": "2025-278Q", "EPOCH": "2025-12-11T20:00:01.999872", "MEAN_MOTION": 15.89564867, "ECCENTRICITY": 0.00018333, "INCLINATION": 42.9975, "RA_OF_ASC_NODE": 257.6605, "ARG_OF_PERICENTER": 258.3771, "MEAN_ANOMALY": 9.8372, "EPHEMERIS_TYPE": 0, "CLASSIFICATION_TYPE": "U", "NORAD_CAT_ID": 66805, "ELEMENT_SET_NO": 999, "REV_AT_EPOCH": 281, "BSTAR": -0.0046716325, "MEAN_MOTION_DOT": -0.012612, "MEAN_MOTION_DDOT": 0}, "tle": {"line1": "1 66805U 25278Q   25345.83335648 -.01261200  00000+0 -46716-2 0  9997", "line2": "2 66805  42.9975 257.6605 0001833 258.3771   9.8372 15.89564867  2811"}}, "geometry": {"type": "Point", "coordinates": [78.55465076477597, -3.6438913420578247]}}, {"type": "Feature", "properties": {"norad_id": 66806, "name": "STARLINK-36069", "group": "last-30-days", "lat": -1.9395709207918046, "lon": 76.72507235784524, "alt_km": 307.05551051417297, "timestamp": "2025-12-12T07:43:19.259431+00:00", "meta": {"OBJECT_NAME": "STARLINK-36069", "OBJECT_ID": "2025-278R", "EPOCH": "2025-12-11T20:00:01.999872", "MEAN_MOTION": 15.89542432, "ECCENTRICITY": 0.00018219, "INCLINATION": 42.9978, "RA_OF_ASC_NODE": 257.6671, "ARG_OF_PERICENTER": 256.5209, "MEAN_ANOMALY": 9.2226, "EPHEMERIS_TYPE": 0, "CLASSIFICATION_TYPE": "U", "NORAD_CAT_ID": 66806, "ELEMENT_SET_NO": 999, "REV_AT_EPOCH": 260, "BSTAR": -0.0046503145, "MEAN_MOTION_DOT": -0.01254801, "MEAN_MOTION_DDOT": 0}, "tle": {"line1": "1 66806U 25278R   25345.83335648 -.01254801  00000+0 -46503-2 0  9991", "line2": "2 66806  42.9978 257.6671 0001821 256.5209   9.2226 15.89542432  2604"}}, "geometry": {"type": "Point", "coordinates": [76.72507235784524, -1.9395709207918046]}}, {"type": "Feature", "properties": {"norad_id": 66807, "name": "STARLINK-36000", "group": "last-30-days", "lat": -6.749228429309654, "lon": 81.92120229202769, "alt_km": 307.37610700428195, "timestamp": "2025-12-12T07:43:19.259443+00:00", "meta": {"OBJECT_NAME": "STARLINK-36000", "OBJECT_ID": "2025-278S", "EPOCH": "2025-12-11T20:00:01.999872", "MEAN_MOTION": 15.89616008, "ECCENTRICITY": 0.00018889, "INCLINATION": 42.9977, "RA_OF_ASC_NODE": 257.6494, "ARG_OF_PERICENTER": 258.9778, "MEAN_ANOMALY": 13.7383, "EPHEMERIS_TYPE": 0, "CLASSIFICATION_TYPE": "U", "NORAD_CAT_ID": 66807, "ELEMENT_SET_NO": 999, "REV_AT_EPOCH": 287, "BSTAR": -0.0047135413, "MEAN_MOTION_DOT": -0.01274226, "MEAN_MOTION_DDOT": 0}, "tle": {"line1": "1 66807U 25278S   25345.83335648 -.01274226  00000+0 -47135-2 0  9997", "line2": "2 66807  42.9977 257.6494 0001888 258.9778  13.7383 15.89616008  2871"}}, "geometry": {"type": "Point", "coordinates": [81.92120229202769, -6.749228429309654]}}, {"type": "Feature", "properties": {"norad_id": 66808, "name": "STARLINK-36071", "group": "last-30-days", "lat": -8.218571147837801, "lon": 83.53589638514647, "alt_km": 307.3869208312444, "timestamp": "2025-12-12T07:43:19.259453+00:00", "meta": {"OBJECT_NAME": "STARLINK-36071", "OBJECT_ID": "2025-278T", "EPOCH": "2025-12-11T20:00:01.999872", "MEAN_MOTION": 15.89642217, "ECCENTRICITY": 0.00018222, "INCLINATION": 42.9978, "RA_OF_ASC_NODE": 257.6437, "ARG_OF_PERICENTER": 256.7346, "MEAN_ANOMALY": 18.1161, "EPHEMERIS_TYPE": 0, "CLASSIFICATION_TYPE": "U", "NORAD_CAT_ID": 66808, "ELEMENT_SET_NO": 999, "REV_AT_EPOCH": 281, "BSTAR": -0.0047257519, "MEAN_MOTION_DOT": -0.01278624, "MEAN_MOTION_DDOT": 0}, "tle": {"line1": "1 66808U 25278T   25345.83335648 -.01278624  00000+0 -47258-2 0  9990", "line2": "2 66808  42.9978 257.6437 0001822 256.7346  18.1161 15.89642217  2813"}}, "geometry": {"type": "Point", "coordinates": [83.53589638514647, -8.218571147837801]}}, {"type": "Feature", "properties": {"norad_id": 66809, "name": "STARLINK-35979", "group": "last-30-days", "lat": -13.281408387889847, "lon": 89.274575980253, "alt_km": 307.55877432529815, "timestamp": "2025-12-12T07:43:19.259465+00:00", "meta": {"OBJECT_NAME": "STARLINK-35979", "OBJECT_ID": "2025-278U", "EPOCH": "2025-12-11T20:00:01.999872", "MEAN_MOTION": 15.89711649, "ECCENTRICITY": 0.00019035, "INCLINATION": 42.9976, "RA_OF_ASC_NODE": 257.625, "ARG_OF_PERICENTER": 255.5542, "MEAN_ANOMALY": 26.7831, "EPHEMERIS_TYPE": 0, "CLASSIFICATION_TYPE": "U", "NORAD_CAT_ID": 66809, "ELEMENT_SET_NO": 999, "REV_AT_EPOCH": 281, "BSTAR": -0.0047797073, "MEAN_MOTION_DOT": -0.0129567, "MEAN_MOTION_DDOT": 0}, "tle": {"line1": "1 66809U 25278U   25345.83335648 -.01295670  00000+0 -47797-2 0  9999", "line2": "2 66809  42.9976 257.6250 0001903 255.5542  26.7831 15.89711649  2815"}}, "geometry": {"type": "Point", "coordinates": [89.274575980253, -13.281408387889847]}}, {"type": "Feature", "properties": {"norad_id": 66810, "name": "STARLINK-36046", "group": "last-30-days", "lat": -9.951739471199863, "lon": 85.46649415371878, "alt_km": 307.45967717617896, "timestamp": "2025-12-12T07:43:19.259475+00:00", "meta": {"OBJECT_NAME": "STARLINK-36046", "OBJECT_ID": "2025-278V", "EPOCH": "2025-12-11T20:00:01.999872", "MEAN_MOTION": 15.89665203, "ECCENTRICITY": 0.0001869, "INCLINATION": 42.9978, "RA_OF_ASC_NODE": 257.6377, "ARG_OF_PERICENTER": 256.578, "MEAN_ANOMALY": 20.821, "EPHEMERIS_TYPE": 0, "CLASSIFICATION_TYPE": "U", "NORAD_CAT_ID": 66810, "ELEMENT_SET_NO": 999, "REV_AT_EPOCH": 258, "BSTAR": -0.0047494314, "MEAN_MOTION_DOT": -0.01285669, "MEAN_MOTION_DDOT": 0}, "tle": {"line1": "1 66810U 25278V   25345.83335648 -.01285669  00000+0 -47494-2 0  9992", "line2": "2 66810  42.9978 257.6377 0001869 256.5780  20.8210 15.89665203  2589"}}, "geometry": {"type": "Point", "coordinates": [85.46649415371878, -9.951739471199863]}}, {"type": "Feature", "properties": {"norad_id": 66811, "name": "STARLINK-36045", "group": "last-30-days", "lat": -11.700008097416076, "lon": 87.44745710949344, "alt_km": 307.63207281218274, "timestamp": "2025-12-12T07:43:19.259485+00:00", "meta": {"OBJECT_NAME": "STARLINK-36045", "OBJECT_ID": "2025-278W", "EPOCH": "2025-12-11T20:00:01.999872", "MEAN_MOTION": 15.89687543, "ECCENTRICITY": 0.00018476, "INCLINATION": 42.9978, "RA_OF_ASC_NODE": 257.6312, "ARG_OF_PERICENTER": 259.526, "MEAN_ANOMALY": 20.4632, "EPHEMERIS_TYPE": 0, "CLASSIFICATION_TYPE": "U", "NORAD_CAT_ID": 66811, "ELEMENT_SET_NO": 999, "REV_AT_EPOCH": 281, "BSTAR": -0.0047771761, "MEAN_MOTION_DOT": -0.01293604, "MEAN_MOTION_DDOT": 0}, "tle": {"line1": "1 66811U 25278W   25345.83335648 -.01293604  00000+0 -47772-2 0  9990", "line2": "2 66811  42.9978 257.6312 0001847 259.5260  20.4632 15.89687543  2812"}}, "geometry": {"type": "Point", "coordinates": [87.44745710949344, -11.700008097416076]}}, {"type": "Feature", "properties": {"norad_id": 66812, "name": "STARLINK-36054", "group": "last-30-days", "lat": -14.665669116328656, "lon": 90.9064603908431, "alt_km": 307.71096693711934, "timestamp": "2025-12-12T07:43:19.259495+00:00", "meta": {"OBJECT_NAME": "STARLINK-36054", "OBJECT_ID": "2025-278X", "EPOCH": "2025-12-11T20:00:01.999872", "MEAN_MOTION": 15.89740598, "ECCENTRICITY": 0.00018421, "INCLINATION": 42.9978, "RA_OF_ASC_NODE": 257.6198, "ARG_OF_PERICENTER": 259.3142, "MEAN_ANOMALY": 25.0889, "EPHEMERIS_TYPE": 0, "CLASSIFICATION_TYPE": "U", "NORAD_CAT_ID": 66812, "ELEMENT_SET_NO": 999, "REV_AT_EPOCH": 281, "BSTAR": -0.0048078236, "MEAN_MOTION_DOT": -0.01304066, "MEAN_MOTION_DDOT": 0}, "tle": {"line1": "1 66812U 25278X   25345.83335648 -.01304066  00000+0 -48078-2 0  9996", "line2": "2 66812  42.9978 257.6198 0001842 259.3142  25.0889 15.89740598  2812"}}, "geometry": {"type": "Point", "coordinates": [90.9064603908431, -14.665669116328656]}}, {"type": "Feature", "properties": {"norad_id": 66813, "name": "STARLINK-36042", "group": "last-30-days", "lat": -15.938854038391968, "lon": 92.4379659235917, "alt_km": 307.6877822812885, "timestamp": "2025-12-12T07:43:19.259507+00:00", "meta": {"OBJECT_NAME": "STARLINK-36042", "OBJECT_ID": "2025-278Y", "EPOCH": "2025-12-11T20:00:01.999872", "MEAN_MOTION": 15.89769758, "ECCENTRICITY": 0.00019107, "INCLINATION": 42.9978, "RA_OF_ASC_NODE": 257.6148, "ARG_OF_PERICENTER": 259.1679, "MEAN_ANOMALY": 27.1411, "EPHEMERIS_TYPE": 0, "CLASSIFICATION_TYPE": "U", "NORAD_CAT_ID": 66813, "ELEMENT_SET_NO": 999, "REV_AT_EPOCH": 281, "BSTAR": -0.0048094515, "MEAN_MOTION_DOT": -0.01306237, "MEAN_MOTION_DDOT": 0}, "tle": {"line1": "1 66813U 25278Y   25345.83335648 -.01306237  00000+0 -48095-2 0  9998", "line2": "2 66813  42.9978 257.6148 0001910 259.1679  27.1411 15.89769758  2810"}}, "geometry": {"type": "Point", "coordinates": [92.4379659235917, -15.938854038391968]}}, {"type": "Feature", "properties": {"norad_id": 66814, "name": "STARLINK-35984", "group": "last-30-days", "lat": -25.571963624222725, "lon": 105.45133779093797, "alt_km": 307.9569578166065, "timestamp": "2025-12-12T07:43:19.259520+00:00", "meta": {"OBJECT_NAME": "STARLINK-35984", "OBJECT_ID": "2025-278Z", "EPOCH": "2025-12-11T20:00:01.999872", "MEAN_MOTION": 15.89887641, "ECCENTRICITY": 0.00018697, "INCLINATION": 42.9976, "RA_OF_ASC_NODE": 257.5756, "ARG_OF_PERICENTER": 257.1736, "MEAN_ANOMALY": 44.5059, "EPHEMERIS_TYPE": 0, "CLASSIFICATION_TYPE": "U", "NORAD_CAT_ID": 66814, "ELEMENT_SET_NO": 999, "REV_AT_EPOCH": 290, "BSTAR": -0.0049463755, "MEAN_MOTION_DOT": -0.01346068, "MEAN_MOTION_DDOT": 0}, "tle": {"line1": "1 66814U 25278Z   25345.83335648 -.01346068  00000+0 -49464-2 0  9996", "line2": "2 66814  42.9976 257.5756 0001869 257.1736  44.5059 15.89887641  2901"}}, "geometry": {"type": "Point", "coordinates": [105.45133779093797, -25.571963624222725]}}]}